[{"OBJECT_NAME":"OBJECT A","OBJECT_ID":"2025-013A","EPOCH":"2026-03-09T23:29:31.895232","MEAN_MOTION":15.29260221,"ECCENTRICITY":0.0010321,"INCLINATION":97.6364,"RA_OF_ASC_NODE":244.5149,"ARG_OF_PERICENTER":282.3775,"MEAN_ANOMALY":77.6309,"EPHEMERIS_TYPE":0,"CLASSIFICATION_TYPE":"U","NORAD_CAT_ID":62729,"ELEMENT_SET_NO":999,"REV_AT_EPOCH":6276,"BSTAR":0.0013206527,"MEAN_MOTION_DOT":0.00037616,"MEAN_MOTION_DDOT":0},{"OBJECT_NAME":"STARLINK-35984","OBJECT_ID":"2025-278Z","EPOCH":"2026-03-09T04:11:39.932736","MEAN_MOTION":15.27588008,"ECCENTRICITY":0.00024612,"INCLINATION":43.0013,"RA_OF_ASC_NODE":116.9847,"ARG_OF_PERICENTER":285.4958,"MEAN_ANOMALY":74.5622,"EPHEMERIS_TYPE":0,"CLASSIFICATION_TYPE":"U","NORAD_CAT_ID":66814,"ELEMENT_SET_NO":999,"REV_AT_EPOCH":1513,"BSTAR":0.0009128834,"MEAN_MOTION_DOT":0.00024951,"MEAN_MOTION_DDOT":0}]
